ONEWEB-0449             
1 51642U 22012W   26182.84194917 -.00000944  00000+0 -27400-2 0  9990
2 51642  87.8821  33.3469 0002176  71.4867 288.6496 13.10376297211221
ONEWEB-0451             
1 51643U 22012X   26182.94046206  .00000011  00000+0 -53555-5 0  9996
2 51643  87.9145   2.9090 0001845  83.4109 276.7232 13.17650008215602
ONEWEB-0452             
1 51644U 22012Y   26182.93876222  .00000036  00000+0  58665-4 0  9997
2 51644  87.9137   2.9449 0001641  81.7509 278.3809 13.17650085215615
ONEWEB-0456             
1 51646U 22012AA  26182.85040857 -.00000542  00000+0 -15894-2 0  9996
2 51646  87.8829  33.3338 0001722  88.4746 271.6579 13.10373040211269
ONEWEB-0457             
1 51647U 22012AB  26182.82826848 -.00000168  00000+0 -51714-3 0  9992
2 51647  87.8816  33.3546 0002204  83.6379 276.4999 13.10371568211264
ONEWEB-0458             
1 51648U 22012AC  26182.84958305 -.00000626  00000+0 -18306-2 0  9997
2 51648  87.8823  33.3383 0001666  80.4331 279.6984 13.10374803211226
ONEWEB-0461             
1 51649U 22012AD  26182.88477371 -.00000012  00000+0 -62961-4 0  9998
2 51649  87.9144   2.9337 0001993  89.4031 270.7329 13.17649147215822
ONEWEB-0463             
1 51650U 22012AE  26182.94215077  .00000047  00000+0  87802-4 0  9997
2 51650  87.9134   2.9436 0002004  90.2823 269.8539 13.17649853215619
ONEWEB-0464             
1 51651U 22012AF  26182.84707711  .00001491  00000+0  42368-2 0  9998
2 51651  87.8847  33.3592 0001240  81.3811 278.7457 13.10351586211249
ONEWEB-0468             
1 51652U 22012AG  26182.92846379 -.00000520  00000+0 -15252-2 0  9998
2 51652  87.8819  33.3373 0001575  87.8710 272.2598 13.10373452211236
ONEWEB-0473             
1 51653U 22012AH  26182.83856631 -.00002007  00000+0 -57873-2 0  9998
2 51653  87.8801  33.3556 0001736  87.7001 272.4325 13.10373162211229
ONEWEB-0474             
1 51654U 22012AJ  26182.83008647 -.00000252  00000+0 -75949-3 0  9990
2 51654  87.8825  33.3448 0001505  85.3491 274.7808 13.10370408211217
ONEWEB-0475             
1 51655U 22012AK  26182.95394801  .00000032  00000+0  48581-4 0  9991
2 51655  87.9134   2.9345 0001175  92.0843 268.0423 13.17647472215633
EOS-4                   
1 51656U 22013A   26182.98227722  .00002106  00000+0  12391-3 0  9996
2 51656  97.5101 189.4061 0001881  91.2825 268.8622 15.12730684241729
STARLINK-3528           
1 51714U 22016A   26182.67708088 -.00000606  00000+0 -19972-4 0  9997
2 51714  53.1602 177.2066 0001250  56.6431 303.4680 15.08832825240630
STARLINK-3533           
1 51715U 22016B   26182.91668981  .00044066  00000+0  15315-2 0  9993
2 51715  53.1589 174.9953 0001350  98.8946  44.7205 15.29332883  5790
STARLINK-3543           
1 51716U 22016C   26182.67612803 -.00000182  00000+0  66434-5 0  9992
2 51716  53.1597 177.2326 0000930  52.1050 308.0025 15.08833248240630
STARLINK-3445           
1 51717U 22016D   26182.91668981  .00043625  00000+0  15163-2 0  9996
2 51717  53.1583 174.8858 0001217  95.0031  84.8634 15.29333656  5795
STARLINK-3546           
1 51718U 22016E   26182.25099396  .00028943  00000+0  13210-2 0  9999
2 51718  53.2132 169.4289 0002297 351.3388   8.7569 15.20406201241834
STARLINK-3540           
1 51719U 22016F   26182.27501791 -.00000325  00000+0 -23092-5 0  9997
2 51719  53.1593 179.1120 0001179  81.0000 279.1125 15.08834225240572
STARLINK-3526           
1 51720U 22016G   26182.91668981  .00043747  00000+0  15203-2 0  9990
2 51720  53.1590 175.0269 0001096 106.4166 100.8793 15.29336822  5756
STARLINK-3524           
1 51721U 22016H   26182.91668981  .00049608  00000+0  17211-2 0  9994
2 51721  53.1597 174.8165 0001404  99.1918 177.2939 15.29334739  5746
STARLINK-3535           
1 51722U 22016J   26182.71292957  .00000359  00000+0  40649-4 0  9992
2 51722  53.1597 177.0658 0001010  43.8164 316.2907 15.08834044240631
STARLINK-3529           
1 51724U 22016L   26182.70556963  .00000354  00000+0  40326-4 0  9990
2 51724  53.1588 177.0989 0001072  76.5953 283.5158 15.08834633240635
STARLINK-3522           
1 51725U 22016M   26182.71660791  .00000546  00000+0  52375-4 0  9997
2 51725  53.1593 177.0492 0001097  81.5203 278.5913 15.08836742240638
STARLINK-3527           
1 51726U 22016N   26182.23559792  .00017486  00000+0  10175-2 0  9994
2 51726  53.2135 168.1937 0002391  39.1334 320.9832 15.12140822240723
STARLINK-3532           
1 51727U 22016P   26182.70925137  .00000227  00000+0  32351-4 0  9994
2 51727  53.1594 177.0821 0001198  81.9782 278.1346 15.08833434240636
STARLINK-3523           
1 51729U 22016R   26182.91668981  .00083845  00000+0  37480-2 0  9993
2 51729  53.1608 165.7863 0001441 109.4350 261.3878 15.20610952  5806
STARLINK-3514           
1 51731U 22016T   26182.91668981  .00099286  00000+0  44484-2 0  9994
2 51731  53.1612 165.7762 0001316  68.8976 348.1977 15.20439605  5746
STARLINK-3518           
1 51732U 22016U   26182.91668981  .00097555  00000+0  45024-2 0  9993
2 51732  53.1615 165.8536 0001791  77.6402  20.7175 15.19428558  5790
