OBJECT_NAME,OBJECT_ID,EPOCH,MEAN_MOTION,ECCENTRICITY,INCLINATION,RA_OF_ASC_NODE,ARG_OF_PERICENTER,MEAN_ANOMALY,EPHEMERIS_TYPE,CLASSIFICATION_TYPE,NORAD_CAT_ID,ELEMENT_SET_NO,REV_AT_EPOCH,BSTAR,MEAN_MOTION_DOT,MEAN_MOTION_DDOT
ONEWEB-0449,2022-012W,2026-07-01T20:12:24.408288,13.10376297,.0002176,87.8821,33.3469,71.4867,288.6496,0,U,51642,999,21122,-.27399972E-2,-.944E-5,0
ONEWEB-0451,2022-012X,2026-07-01T22:34:15.921984,13.17650008,.00018455,87.9145,2.9090,83.4109,276.7232,0,U,51643,999,21560,-.5355464E-5,.11E-6,0
ONEWEB-0452,2022-012Y,2026-07-01T22:31:49.055808,13.17650085,.00016418,87.9137,2.9449,81.7509,278.3809,0,U,51644,999,21561,.58664844E-4,.36E-6,0
ONEWEB-0456,2022-012AA,2026-07-01T20:24:35.300448,13.10373040,.00017228,87.8829,33.3338,88.4746,271.6579,0,U,51646,999,21126,-.15894078E-2,-.542E-5,0
ONEWEB-0457,2022-012AB,2026-07-01T19:52:42.396672,13.10371568,.00022046,87.8816,33.3546,83.6379,276.4999,0,U,51647,999,21126,-.51713721E-3,-.168E-5,0
ONEWEB-0458,2022-012AC,2026-07-01T20:23:23.975520,13.10374803,.00016665,87.8823,33.3383,80.4331,279.6984,0,U,51648,999,21122,-.18306128E-2,-.626E-5,0
ONEWEB-0461,2022-012AD,2026-07-01T21:14:04.448544,13.17649147,.00019936,87.9144,2.9337,89.4031,270.7329,0,U,51649,999,21582,-.62961336E-4,-.12E-6,0
ONEWEB-0463,2022-012AE,2026-07-01T22:36:41.826528,13.17649853,.00020047,87.9134,2.9436,90.2823,269.8539,0,U,51650,999,21561,.87802035E-4,.47E-6,0
ONEWEB-0464,2022-012AF,2026-07-01T20:19:47.462304,13.10351586,.00012409,87.8847,33.3592,81.3811,278.7457,0,U,51651,999,21124,.4236784E-2,.1491E-4,0
ONEWEB-0468,2022-012AG,2026-07-01T22:16:59.271456,13.10373452,.00015751,87.8819,33.3373,87.8710,272.2598,0,U,51652,999,21123,-.15251768E-2,-.52E-5,0
ONEWEB-0473,2022-012AH,2026-07-01T20:07:32.129184,13.10373162,.00017361,87.8801,33.3556,87.7001,272.4325,0,U,51653,999,21122,-.57872877E-2,-.2007E-4,0
ONEWEB-0474,2022-012AJ,2026-07-01T19:55:19.471008,13.10370408,.00015056,87.8825,33.3448,85.3491,274.7808,0,U,51654,999,21121,-.75949295E-3,-.252E-5,0
ONEWEB-0475,2022-012AK,2026-07-01T22:53:41.108064,13.17647472,.00011756,87.9134,2.9345,92.0843,268.0423,0,U,51655,999,21563,.48581301E-4,.32E-6,0
EOS-4,2022-013A,2026-07-01T23:34:28.751808,15.12730684,.00018817,97.5101,189.4061,91.2825,268.8622,0,U,51656,999,24172,.12391478E-3,.2106E-4,0
STARLINK-3528,2022-016A,2026-07-01T16:14:59.788032,15.08832825,.00012507,53.1602,177.2066,56.6431,303.4680,0,U,51714,999,24063,-.19971839E-4,-.606E-5,0
STARLINK-3533,2022-016B,2026-07-01T22:00:01.999584,15.29332883,.00013505,53.1589,174.9953,98.8946,44.7205,0,U,51715,999,579,.15314518E-2,.44066E-3,0
STARLINK-3543,2022-016C,2026-07-01T16:13:37.461792,15.08833248,.00009305,53.1597,177.2326,52.1050,308.0025,0,U,51716,999,24063,.6643375E-5,-.182E-5,0
STARLINK-3445,2022-016D,2026-07-01T22:00:01.999584,15.29333656,.00012175,53.1583,174.8858,95.0031,84.8634,0,U,51717,999,579,.15162822E-2,.43625E-3,0
STARLINK-3546,2022-016E,2026-07-01T06:01:25.878144,15.20406201,.0002297,53.2132,169.4289,351.3388,8.7569,0,U,51718,999,24183,.1321E-2,.28943E-3,0
STARLINK-3540,2022-016F,2026-07-01T06:36:01.547424,15.08834225,.0001179,53.1593,179.1120,81.0000,279.1125,0,U,51719,999,24057,-.23092E-5,-.325E-5,0
STARLINK-3526,2022-016G,2026-07-01T22:00:01.999584,15.29336822,.00010968,53.1590,175.0269,106.4166,100.8793,0,U,51720,999,575,.15203407E-2,.43747E-3,0
STARLINK-3524,2022-016H,2026-07-01T22:00:01.999584,15.29334739,.00014046,53.1597,174.8165,99.1918,177.2939,0,U,51721,999,574,.17211284E-2,.49608E-3,0
STARLINK-3535,2022-016J,2026-07-01T17:06:37.114848,15.08834044,.00010106,53.1597,177.0658,43.8164,316.2907,0,U,51722,999,24063,.40649334E-4,.359E-5,0
STARLINK-3529,2022-016L,2026-07-01T16:56:01.216032,15.08834633,.0001072,53.1588,177.0989,76.5953,283.5158,0,U,51724,999,24063,.40325954E-4,.354E-5,0
STARLINK-3522,2022-016M,2026-07-01T17:11:54.923424,15.08836742,.00010977,53.1593,177.0492,81.5203,278.5913,0,U,51725,999,24063,.52375093E-4,.546E-5,0
STARLINK-3527,2022-016N,2026-07-01T05:39:15.660288,15.12140822,.0002391,53.2135,168.1937,39.1334,320.9832,0,U,51726,999,24072,.10175E-2,.17486E-3,0
STARLINK-3532,2022-016P,2026-07-01T17:01:19.318368,15.08833434,.0001198,53.1594,177.0821,81.9782,278.1346,0,U,51727,999,24063,.32351275E-4,.227E-5,0
STARLINK-3523,2022-016R,2026-07-01T22:00:01.999584,15.20610952,.00014413,53.1608,165.7863,109.4350,261.3878,0,U,51729,999,580,.37480276E-2,.83845E-3,0
STARLINK-3514,2022-016T,2026-07-01T22:00:01.999584,15.20439605,.00013167,53.1612,165.7762,68.8976,348.1977,0,U,51731,999,574,.44483877E-2,.99286E-3,0
STARLINK-3518,2022-016U,2026-07-01T22:00:01.999584,15.19428558,.00017919,53.1615,165.8536,77.6402,20.7175,0,U,51732,999,579,.45023633E-2,.97555E-3,0
